{
 "generated_at": "2026-07-02T08:12:02Z",
 "sources": [
  {
   "name": "CelesTrak",
   "url": "https://celestrak.org/NORAD/elements/",
   "license": "frei verfügbar; Attribution. Ursprünglich USSPACECOM/Space-Track."
  },
  {
   "name": "GCAT (J. McDowell, planet4589.org)",
   "url": "https://planet4589.org/space/gcat/",
   "license": "CC-BY 4.0"
  }
 ],
 "satellites": [
  {
   "norad": 41790,
   "name": "SCATSAT 1",
   "intl": "2016-059H",
   "group": "resource",
   "gcat": {
    "class": null,
    "category": null,
    "owner": null,
    "state": null
   },
   "omm": {
    "OBJECT_NAME": "SCATSAT 1",
    "OBJECT_ID": "2016-059H",
    "EPOCH": "2026-07-01T21:20:03.652224",
    "MEAN_MOTION": 14.79559343,
    "ECCENTRICITY": 0.00542272,
    "INCLINATION": 98.1185,
    "RA_OF_ASC_NODE": 246.8066,
    "ARG_OF_PERICENTER": 199.3539,
    "MEAN_ANOMALY": 160.5613,
    "EPHEMERIS_TYPE": 0,
    "CLASSIFICATION_TYPE": "U",
    "NORAD_CAT_ID": 41790,
    "ELEMENT_SET_NO": 999,
    "REV_AT_EPOCH": 10376,
    "BSTAR": 0.00018906139,
    "MEAN_MOTION_DOT": 0.00001393,
    "MEAN_MOTION_DDOT": 0
   }
  },
  {
   "norad": 22490,
   "name": "SCD 1",
   "intl": "1993-009B",
   "group": "resource",
   "gcat": {
    "class": "C",
    "category": "COM",
    "owner": "INPE",
    "state": "BR"
   },
   "omm": {
    "OBJECT_NAME": "SCD 1",
    "OBJECT_ID": "1993-009B",
    "EPOCH": "2026-07-01T22:23:18.767040",
    "MEAN_MOTION": 14.46124533,
    "ECCENTRICITY": 0.00416343,
    "INCLINATION": 24.9688,
    "RA_OF_ASC_NODE": 116.5278,
    "ARG_OF_PERICENTER": 294.1707,
    "MEAN_ANOMALY": 126.921,
    "EPHEMERIS_TYPE": 0,
    "CLASSIFICATION_TYPE": "U",
    "NORAD_CAT_ID": 22490,
    "ELEMENT_SET_NO": 999,
    "REV_AT_EPOCH": 76325,
    "BSTAR": 0.000068852112,
    "MEAN_MOTION_DOT": 0.00000438,
    "MEAN_MOTION_DDOT": 0
   }
  },
  {
   "norad": 25504,
   "name": "SCD 2",
   "intl": "1998-060A",
   "group": "resource",
   "gcat": {
    "class": "C",
    "category": "COM",
    "owner": "INPE",
    "state": "BR"
   },
   "omm": {
    "OBJECT_NAME": "SCD 2",
    "OBJECT_ID": "1998-060A",
    "EPOCH": "2026-07-01T21:14:29.370624",
    "MEAN_MOTION": 14.45531272,
    "ECCENTRICITY": 0.00165332,
    "INCLINATION": 24.9966,
    "RA_OF_ASC_NODE": 341.5193,
    "ARG_OF_PERICENTER": 278.6953,
    "MEAN_ANOMALY": 216.47,
    "EPHEMERIS_TYPE": 0,
    "CLASSIFICATION_TYPE": "U",
    "NORAD_CAT_ID": 25504,
    "ELEMENT_SET_NO": 999,
    "REV_AT_EPOCH": 46245,
    "BSTAR": 0.000057926226,
    "MEAN_MOTION_DOT": 0.0000039,
    "MEAN_MOTION_DDOT": 0
   }
  },
  {
   "norad": 39634,
   "name": "SENTINEL-1A",
   "intl": "2014-016A",
   "group": "resource",
   "gcat": {
    "class": "C",
    "category": "IMG-R",
    "owner": "ESA",
    "state": "I-ESA"
   },
   "omm": {
    "OBJECT_NAME": "SENTINEL-1A",
    "OBJECT_ID": "2014-016A",
    "EPOCH": "2026-07-01T23:21:24.327072",
    "MEAN_MOTION": 14.5919902,
    "ECCENTRICITY": 0.00013825,
    "INCLINATION": 98.1773,
    "RA_OF_ASC_NODE": 190.2898,
    "ARG_OF_PERICENTER": 86.0698,
    "MEAN_ANOMALY": 274.0659,
    "EPHEMERIS_TYPE": 0,
    "CLASSIFICATION_TYPE": "U",
    "NORAD_CAT_ID": 39634,
    "ELEMENT_SET_NO": 999,
    "REV_AT_EPOCH": 65217,
    "BSTAR": -0.000026140842,
    "MEAN_MOTION_DOT": -0.00000169,
    "MEAN_MOTION_DDOT": 0
   }
  },
  {
   "norad": 62261,
   "name": "SENTINEL-1C",
   "intl": "2024-235A",
   "group": "sar",
   "gcat": {
    "class": "C",
    "category": "IMG-R",
    "owner": "COPERN/ESA",
    "state": "I-EU"
   },
   "omm": {
    "OBJECT_NAME": "SENTINEL-1C",
    "OBJECT_ID": "2024-235A",
    "EPOCH": "2026-07-01T22:39:22.655808",
    "MEAN_MOTION": 14.59197793,
    "ECCENTRICITY": 0.00012786,
    "INCLINATION": 98.1824,
    "RA_OF_ASC_NODE": 190.0409,
    "ARG_OF_PERICENTER": 90.1987,
    "MEAN_ANOMALY": 269.9359,
    "EPHEMERIS_TYPE": 0,
    "CLASSIFICATION_TYPE": "U",
    "NORAD_CAT_ID": 62261,
    "ELEMENT_SET_NO": 999,
    "REV_AT_EPOCH": 8356,
    "BSTAR": -0.000004196763,
    "MEAN_MOTION_DOT": -6.6e-7,
    "MEAN_MOTION_DDOT": 0
   }
  },
  {
   "norad": 66315,
   "name": "SENTINEL-1D",
   "intl": "2025-251A",
   "group": "sar",
   "gcat": {
    "class": "C",
    "category": "IMG-R",
    "owner": "COPERN/ESA",
    "state": "I-EU"
   },
   "omm": {
    "OBJECT_NAME": "SENTINEL-1D",
    "OBJECT_ID": "2025-251A",
    "EPOCH": "2026-07-01T23:28:58.029888",
    "MEAN_MOTION": 14.5919875,
    "ECCENTRICITY": 0.00013514,
    "INCLINATION": 98.1826,
    "RA_OF_ASC_NODE": 190.1298,
    "ARG_OF_PERICENTER": 89.4444,
    "MEAN_ANOMALY": 270.6911,
    "EPHEMERIS_TYPE": 0,
    "CLASSIFICATION_TYPE": "U",
    "NORAD_CAT_ID": 66315,
    "ELEMENT_SET_NO": 999,
    "REV_AT_EPOCH": 3488,
    "BSTAR": 0.000018650176,
    "MEAN_MOTION_DOT": 4.2e-7,
    "MEAN_MOTION_DDOT": 0
   }
  },
  {
   "norad": 40697,
   "name": "SENTINEL-2A",
   "intl": "2015-028A",
   "group": "resource",
   "gcat": {
    "class": "C",
    "category": "IMG",
    "owner": "COPERN/ESA",
    "state": "I-EU"
   },
   "omm": {
    "OBJECT_NAME": "SENTINEL-2A",
    "OBJECT_ID": "2015-028A",
    "EPOCH": "2026-07-01T23:16:42.764160",
    "MEAN_MOTION": 14.30818854,
    "ECCENTRICITY": 0.00012149,
    "INCLINATION": 98.5687,
    "RA_OF_ASC_NODE": 257.6115,
    "ARG_OF_PERICENTER": 96.2489,
    "MEAN_ANOMALY": 263.8832,
    "EPHEMERIS_TYPE": 0,
    "CLASSIFICATION_TYPE": "U",
    "NORAD_CAT_ID": 40697,
    "ELEMENT_SET_NO": 999,
    "REV_AT_EPOCH": 57584,
    "BSTAR": 0.000020006053,
    "MEAN_MOTION_DOT": 9e-8,
    "MEAN_MOTION_DDOT": 0
   }
  },
  {
   "norad": 42063,
   "name": "SENTINEL-2B",
   "intl": "2017-013A",
   "group": "resource",
   "gcat": {
    "class": "C",
    "category": "IMG",
    "owner": "COPERN/ESA",
    "state": "I-EU"
   },
   "omm": {
    "OBJECT_NAME": "SENTINEL-2B",
    "OBJECT_ID": "2017-013A",
    "EPOCH": "2026-07-01T23:06:19.250784",
    "MEAN_MOTION": 14.30820628,
    "ECCENTRICITY": 0.00012185,
    "INCLINATION": 98.5694,
    "RA_OF_ASC_NODE": 257.5285,
    "ARG_OF_PERICENTER": 91.1545,
    "MEAN_ANOMALY": 268.9778,
    "EPHEMERIS_TYPE": 0,
    "CLASSIFICATION_TYPE": "U",
    "NORAD_CAT_ID": 42063,
    "ELEMENT_SET_NO": 999,
    "REV_AT_EPOCH": 48675,
    "BSTAR": 0.000038835589,
    "MEAN_MOTION_DOT": 5.8e-7,
    "MEAN_MOTION_DDOT": 0
   }
  },
  {
   "norad": 60989,
   "name": "SENTINEL-2C",
   "intl": "2024-157A",
   "group": "resource",
   "gcat": {
    "class": "C",
    "category": "IMG",
    "owner": "COPERN/ESA",
    "state": "I-EU"
   },
   "omm": {
    "OBJECT_NAME": "SENTINEL-2C",
    "OBJECT_ID": "2024-157A",
    "EPOCH": "2026-07-01T22:15:59.343552",
    "MEAN_MOTION": 14.30821767,
    "ECCENTRICITY": 0.00009016,
    "INCLINATION": 98.569,
    "RA_OF_ASC_NODE": 257.5012,
    "ARG_OF_PERICENTER": 94.2219,
    "MEAN_ANOMALY": 265.9067,
    "EPHEMERIS_TYPE": 0,
    "CLASSIFICATION_TYPE": "U",
    "NORAD_CAT_ID": 60989,
    "ELEMENT_SET_NO": 999,
    "REV_AT_EPOCH": 9509,
    "BSTAR": 0.000059446747,
    "MEAN_MOTION_DOT": 0.00000112,
    "MEAN_MOTION_DDOT": 0
   }
  },
  {
   "norad": 41335,
   "name": "SENTINEL-3A",
   "intl": "2016-011A",
   "group": "resource",
   "gcat": {
    "class": "C",
    "category": "IMG",
    "owner": "COPERN/ESA",
    "state": "I-EU"
   },
   "omm": {
    "OBJECT_NAME": "SENTINEL-3A",
    "OBJECT_ID": "2016-011A",
    "EPOCH": "2026-07-01T22:39:08.246016",
    "MEAN_MOTION": 14.26736714,
    "ECCENTRICITY": 0.00014373,
    "INCLINATION": 98.6244,
    "RA_OF_ASC_NODE": 250.1152,
    "ARG_OF_PERICENTER": 94.9494,
    "MEAN_ANOMALY": 265.185,
    "EPHEMERIS_TYPE": 0,
    "CLASSIFICATION_TYPE": "U",
    "NORAD_CAT_ID": 41335,
    "ELEMENT_SET_NO": 999,
    "REV_AT_EPOCH": 54016,
    "BSTAR": 0.000069261328,
    "MEAN_MOTION_DOT": 0.00000124,
    "MEAN_MOTION_DDOT": 0
   }
  }
 ]
}
